[{"OBJECT_NAME":"CINEMA","OBJECT_ID":"2012-048G","EPOCH":"2026-03-09T23:21:38.910528","MEAN_MOTION":15.41758997,"ECCENTRICITY":0.00644529,"INCLINATION":64.645,"RA_OF_ASC_NODE":61.8658,"ARG_OF_PERICENTER":204.5071,"MEAN_ANOMALY":155.2999,"EPHEMERIS_TYPE":0,"CLASSIFICATION_TYPE":"U","NORAD_CAT_ID":38764,"ELEMENT_SET_NO":999,"REV_AT_EPOCH":10191,"BSTAR":0.00076174658,"MEAN_MOTION_DOT":0.0003483,"MEAN_MOTION_DDOT":0},{"OBJECT_NAME":"STARLINK-36538","OBJECT_ID":"2026-012V","EPOCH":"2026-03-09T23:32:14.919072","MEAN_MOTION":15.27590595,"ECCENTRICITY":0.00018041,"INCLINATION":43.0049,"RA_OF_ASC_NODE":312.9874,"ARG_OF_PERICENTER":285.501,"MEAN_ANOMALY":74.5643,"EPHEMERIS_TYPE":0,"CLASSIFICATION_TYPE":"U","NORAD_CAT_ID":67512,"ELEMENT_SET_NO":999,"REV_AT_EPOCH":780,"BSTAR":0.001154163,"MEAN_MOTION_DOT":0.00031645,"MEAN_MOTION_DDOT":0}]
